#dP2018 12 20  0  0  0.00000000      96 __u+U ITR00 FIT  IAC
## 2032 345600.00000000   900.00000000 58472 0.0000000000000
+   90   C01C02C03C04C05C06C07C08C09C10C11C12C13C14E01E02E03
+        E04E05E07E08E09E11E12E13E14E15E18E19E21E24E25E26E27
+        E30G01G02G03G04G05G06G07G08G09G10G11G12G13G14G15G16
+        G17G18G19G20G21G22G23G24G25G26G27G28G29G30G31G32R01
+        R02R03R04R05R07R08R09R10R11R13R14R15R16R17R18R19R20
+        R21R22R23R24R26  0  0  0  0  0  0  0  0  0  0  0  0
++        12 13 12 12 12  8  8  9  8  8  8  9  8  8  5  4  5
++         5  5  5  5  5  4  5  5  5  5  5  4  5  5  5  5  4
++         4  3  3  3  3  3  3  3  3  3  3  3  3  3  3  3  3
++         3  3  3  3  3  3  3  3  3  3  3  3  3  3  3  3  6
++         6  6  6  6  6  6  6  6  5  5  5  5  5  5  5  5  5
++         5  5  5  6  9  0  0  0  0  0  0  0  0  0  0  0  0
%c M  cc GPS ccc cccc cccc cccc cccc ccccc ccccc ccccc ccccc
%c cc cc ccc ccc cccc cccc cccc cccc ccccc ccccc ccccc ccccc
%f  0.0000000  0.000000000  0.00000000000  0.000000000000000
%f  0.0000000  0.000000000  0.00000000000  0.000000000000000
%i    0    0    0    0      0      0      0      0         0
%i    0    0    0    0      0      0      0      0         0
/*                                                          
/*   RSA / INFORMATION & ANALYSIS CENTER (IAC) OF MCC       
/*   ULTRA-RAPID DETERMINATION                              
/* PCV:IGS14_2029 OL/AL:FES2004  NONE     YN ORB:CoN CLK:CoN
*  2018 12 20 15 45  0.00000000
PC01 -32283.191966  27103.202775   1108.506198    -14.995402
PC02   4398.932412  41950.773203   -587.666551 999999.999999
PC03 -14843.841585  39434.806952    485.312756   -167.022365
PC04 -39615.662598  14453.727318    621.951060   -247.792350
PC05  21789.012011  36072.280273   -881.376717     22.162993
PC06  -9225.555920  24065.768381 -33038.873286    175.585050
PC07 -24147.938501  26826.753635  21545.904317   -193.306150
PC08 -13990.332899  38845.238028   9332.035358     67.450592
PC09   5757.886588  32321.001026 -26082.671444    381.874660
PC10  -7421.044271  28066.288832  30596.715012   -337.652235
PC11 -14360.102324 -22029.904849   9294.250332    -96.786473
PC12   3165.294774 -22423.205881 -16176.450070    288.533383
PC13  -6076.752428  41749.831263  -3065.364321   -439.298024
PC14 -10700.681276 -16128.440214  20172.181910    509.069739
PE01 -18752.958112  -6250.521133 -22028.154159   -503.121812
PE02  18776.997352   6229.825444  22018.933507     39.929675
PE03  24807.520009  16129.273190  -1014.660479   -112.906682
PE04 -24690.814619  -1623.488487 -16248.840928   -182.947031
PE05  10381.518834  21266.716183 -17785.311776    139.274652
PE07  10064.486653 -13944.869443  24091.417874    -97.202097
PE08  24631.682902   1444.472649  16355.724238   6439.707200
PE09  -9851.000018  13920.262374 -24194.657429   6582.830656
PE11  -9274.739587  24792.245066  13237.619129   5717.048890
PE12 -16216.249109   5569.034449  24135.708969   5759.314651
PE13   9170.418242 -24755.820443 -13374.902772    380.736122
PE14  23209.011448   9396.820287 -17367.731823   6472.102128
PE15  16051.846487  -6123.615058 -24091.725926    925.192148
PE18 -17558.503322 -19202.492494   5613.550950   5668.147554
PE19 -23997.397114 -17083.819633   2927.204277     -9.740675
PE21   1028.567772 -18076.249401 -23414.946307   -510.312776
PE24 -19594.744373  19065.637637  11365.084329   6328.740911
PE25  -1060.699576  18091.937784  23412.580827   1948.471974
PE26  -2799.660638 -29023.575671   5071.584677   5113.880847
PE27  19914.790273 -19009.489110 -10861.027892    566.475799
PE30  27168.741726  -9003.043909   7525.142649   5254.715271
PG01 -13812.183966  21647.021414   5956.941034   -131.922722
PG02  16218.388926  -2650.481659 -20234.733695    -90.930705
PG03 -16809.279553  13123.643285 -15826.287426    171.133376
PG04 -21314.841826 -10731.379896  11979.209196   -106.587301
PG05  26497.211366  -2385.917898  -1992.915531      0.480855
PG06  10575.502934  11951.732179 -21191.687548    312.800284
PG07  -4497.122416  24612.463460   8423.904308     67.020047
PG08 -14823.354846   4958.748800  21546.994676   -126.238418
PG09   3660.877587  21864.597642 -14671.377442    481.150445
PG10 -13921.470875 -11887.775660  19353.389714    148.752424
PG11 -10312.685671  19819.752573  13984.755426   -686.226538
PG12  20004.059544 -10435.196341 -14062.999969    282.993157
PG13  17592.833468   3761.386603  19431.890305    -80.974787
PG14 -18088.221363 -17511.142043  -8438.172073    -94.365034
PG15  13003.273394  -9132.259543  21047.653989   -335.516595
PG16 -26712.727534   -536.143584  -2219.516996     -7.758096
PG17  14317.010692  22436.157290    908.438986    -16.019455
PG18 -16342.842625  14789.687145  14234.480831      7.469394
PG19  17875.929044  17262.596001  -9506.028417   -371.913129
PG20  -3735.408034 -15385.532338  21205.991744    520.183816
PG21    193.085524 -24407.430944  11367.650807   -283.938249
PG22 -22391.945339  10980.730729  -8842.129097   -603.290497
PG23  -5640.679555  16224.957303 -19845.768212   -202.977065
PG24  15193.365014 -18792.174088  10508.070623    -59.752105
PG25   9095.233021 -14894.898082 -20136.453824   -693.997977
PG26 -23471.871395  -4951.595980 -11587.321056     73.168301
PG27 -19151.102089  -5801.914257  17521.465948    -35.349962
PG28  10855.535068  13474.486829  20752.475767    759.210266
PG29   -120.843774 -20564.744866 -16826.219217    311.344530
PG30   4001.155377  19990.527614  16949.437457    -22.777990
PG31 -12505.105718  -8897.026468 -21629.463946     71.516833
PG32 -16842.455018 -20563.327021  -1346.978812   -310.640103
PR01   6665.028865  -9346.225970  22773.509192     36.727700
PR02 -14138.259953 -13548.766438  16406.940739    345.367355
PR03 -23917.460448  -8933.249817    239.424543    152.209590
PR04 -19470.200698   1207.206505 -16437.276350    288.177929
PR05  -4336.542417   9974.194497 -23071.056263     18.125136
PR07  23961.714466   8683.194409    330.837830    -54.121225
PR08  19896.086368   -785.285338  15982.076042     19.928946
PR09   2949.494221  11679.211904  22492.186579     44.737452
PR10  15648.075536   -722.282505  20140.394960     38.023500
PR11  20828.558427 -13648.824865   5643.453921    -50.792035
PR13  -1956.028946 -12122.310278 -22372.435174    -18.105481
PR14 -15718.905405    601.078452 -20062.642543     34.164632
PR15 -20830.151770  13226.568153  -6458.049967     98.942455
PR16 -13896.864365  18605.137638  10670.500323    109.218262
PR17 -11082.835240 -12323.843344  19388.595505    189.464904
PR18  -9569.657343   5924.868100  22904.053432     28.383817
PR19  -3266.978677  21137.012166  13910.436330    -62.179886
PR20   5644.031463  24394.534709  -4742.223558   -362.947265
PR21  11061.681926  11900.957467 -19668.862233    -20.949640
PR22   8822.260150  -8638.635982 -22331.576252    -64.417269
PR23    655.330269 -23542.537381  -9797.189709    198.036565
PR24  -6671.063663 -23847.734862   6124.685756   -175.136142
PR26   5359.646782  24790.178427  -2836.428743     11.052084
EOF
